{"type": "FeatureCollection", "features": [ {"type": "Feature", "properties": {"norad_id": 34303, "name": "COSMOS 2251 DEB", "group": "cosmos-2251-debris", "lat": -20.48417911526213, "lon": 131.24686894850717, "alt_km": 756.7310340373542, "timestamp": "2025-12-03T17:47:51.112134+00:00", "meta": {"OBJECT_NAME": "COSMOS 2251 DEB", "OBJECT_ID": "1993-036MZ", "EPOCH": "2025-12-03T07:32:18.307392", "MEAN_MOTION": 14.54253406, "ECCENTRICITY": 0.0134901, "INCLINATION": 74.0049, "RA_OF_ASC_NODE": 305.9052, "ARG_OF_PERICENTER": 86.6727, "MEAN_ANOMALY": 36.1699, "EPHEMERIS_TYPE": 0, "CLASSIFICATION_TYPE": "U", "NORAD_CAT_ID": 34303, "ELEMENT_SET_NO": 999, "REV_AT_EPOCH": 87825, "BSTAR": 0.0015443, "MEAN_MOTION_DOT": 7.368e-05, "MEAN_MOTION_DDOT": 0}, "tle": {"line1": "1 34303U 93036MZ  25337.31410078  .00007368  00000+0  15443-2 0  9990", "line2": "2 34303  74.0049 305.9052 0134901  86.6727  36.1699 14.54253406878255"}}, "geometry": {"type": "Point", "coordinates": [131.24686894850717, -20.48417911526213]}}, {"type": "Feature", "properties": {"norad_id": 34304, "name": "COSMOS 2251 DEB", "group": "cosmos-2251-debris", "lat": 50.33953521570389, "lon": -61.04140455155776, "alt_km": 842.156526481499, "timestamp": "2025-12-03T17:47:51.112144+00:00", "meta": {"OBJECT_NAME": "COSMOS 2251 DEB", "OBJECT_ID": "1993-036NA", "EPOCH": "2025-12-03T12:27:18.270144", "MEAN_MOTION": 14.37720668, "ECCENTRICITY": 0.0128863, "INCLINATION": 74.0119, "RA_OF_ASC_NODE": 139.6011, "ARG_OF_PERICENTER": 279.2722, "MEAN_ANOMALY": 136.4683, "EPHEMERIS_TYPE": 0, "CLASSIFICATION_TYPE": "U", "NORAD_CAT_ID": 34304, "ELEMENT_SET_NO": 999, "REV_AT_EPOCH": 87164, "BSTAR": 0.0018724, "MEAN_MOTION_DOT": 6.175e-05, "MEAN_MOTION_DDOT": 0}, "tle": {"line1": "1 34304U 93036NA  25337.51896146  .00006175  00000+0  18724-2 0  9997", "line2": "2 34304  74.0119 139.6011 0128863 279.2722 136.4683 14.37720668871649"}}, "geometry": {"type": "Point", "coordinates": [-61.04140455155776, 50.33953521570389]}}, {"type": "Feature", "properties": {"norad_id": 34307, "name": "COSMOS 2251 DEB", "group": "cosmos-2251-debris", "lat": 24.956296608796052, "lon": 139.90844977972404, "alt_km": 765.3339558229272, "timestamp": "2025-12-03T17:47:51.112155+00:00", "meta": {"OBJECT_NAME": "COSMOS 2251 DEB", "OBJECT_ID": "1993-036ND", "EPOCH": "2025-12-03T10:42:20.312352", "MEAN_MOTION": 13.54301619, "ECCENTRICITY": 0.0392365, "INCLINATION": 74.0531, "RA_OF_ASC_NODE": 328.0288, "ARG_OF_PERICENTER": 161.0045, "MEAN_ANOMALY": 353.2249, "EPHEMERIS_TYPE": 0, "CLASSIFICATION_TYPE": "U", "NORAD_CAT_ID": 34307, "ELEMENT_SET_NO": 999, "REV_AT_EPOCH": 82736, "BSTAR": 0.0007804, "MEAN_MOTION_DOT": 8.49e-06, "MEAN_MOTION_DDOT": 0}, "tle": {"line1": "1 34307U 93036ND  25337.44606843  .00000849  00000+0  78040-3 0  9995", "line2": "2 34307  74.0531 328.0288 0392365 161.0045 353.2249 13.54301619827362"}}, "geometry": {"type": "Point", "coordinates": [139.90844977972404, 24.956296608796052]}}, {"type": "Feature", "properties": {"norad_id": 34313, "name": "COSMOS 2251 DEB", "group": "cosmos-2251-debris", "lat": 42.31207654153913, "lon": -20.45868471277675, "alt_km": 506.78149333715464, "timestamp": "2025-12-03T17:47:51.112165+00:00", "meta": {"OBJECT_NAME": "COSMOS 2251 DEB", "OBJECT_ID": "1993-036NK", "EPOCH": "2025-12-03T09:41:15.431712", "MEAN_MOTION": 15.16785332, "ECCENTRICITY": 0.0010505, "INCLINATION": 73.9718, "RA_OF_ASC_NODE": 325.0779, "ARG_OF_PERICENTER": 93.5622, "MEAN_ANOMALY": 266.6775, "EPHEMERIS_TYPE": 0, "CLASSIFICATION_TYPE": "U", "NORAD_CAT_ID": 34313, "ELEMENT_SET_NO": 999, "REV_AT_EPOCH": 88923, "BSTAR": 0.0044775, "MEAN_MOTION_DOT": 0.0008914, "MEAN_MOTION_DDOT": 0}, "tle": {"line1": "1 34313U 93036NK  25337.40365083  .00089140  00000+0  44775-2 0  9994", "line2": "2 34313  73.9718 325.0779 0010505  93.5622 266.6775 15.16785332889232"}}, "geometry": {"type": "Point", "coordinates": [-20.45868471277675, 42.31207654153913]}}, {"type": "Feature", "properties": {"norad_id": 34314, "name": "COSMOS 2251 DEB", "group": "cosmos-2251-debris", "lat": 71.8681508995014, "lon": 25.59321549781044, "alt_km": 753.8473541961393, "timestamp": "2025-12-03T17:47:51.112176+00:00", "meta": {"OBJECT_NAME": "COSMOS 2251 DEB", "OBJECT_ID": "1993-036NL", "EPOCH": "2025-12-03T09:39:25.161120", "MEAN_MOTION": 14.1738511, "ECCENTRICITY": 0.0102536, "INCLINATION": 74.0053, "RA_OF_ASC_NODE": 325.0465, "ARG_OF_PERICENTER": 73.1125, "MEAN_ANOMALY": 78.0252, "EPHEMERIS_TYPE": 0, "CLASSIFICATION_TYPE": "U", "NORAD_CAT_ID": 34314, "ELEMENT_SET_NO": 999, "REV_AT_EPOCH": 86525, "BSTAR": 0.00085218, "MEAN_MOTION_DOT": 1.792e-05, "MEAN_MOTION_DDOT": 0}, "tle": {"line1": "1 34314U 93036NL  25337.40237455  .00001792  00000+0  85218-3 0  9991", "line2": "2 34314  74.0053 325.0465 0102536  73.1125  78.0252 14.17385110865258"}}, "geometry": {"type": "Point", "coordinates": [25.59321549781044, 71.8681508995014]}}, {"type": "Feature", "properties": {"norad_id": 34316, "name": "COSMOS 2251 DEB", "group": "cosmos-2251-debris", "lat": 29.515183955871283, "lon": 4.219006934737409, "alt_km": 588.6446834389499, "timestamp": "2025-12-03T17:47:51.112187+00:00", "meta": {"OBJECT_NAME": "COSMOS 2251 DEB", "OBJECT_ID": "1993-036NN", "EPOCH": "2025-12-02T11:04:14.633472", "MEAN_MOTION": 14.91333968, "ECCENTRICITY": 0.00078318, "INCLINATION": 74.0655, "RA_OF_ASC_NODE": 357.4723, "ARG_OF_PERICENTER": 87.8218, "MEAN_ANOMALY": 272.3861, "EPHEMERIS_TYPE": 0, "CLASSIFICATION_TYPE": "U", "NORAD_CAT_ID": 34316, "ELEMENT_SET_NO": 999, "REV_AT_EPOCH": 89056, "BSTAR": 0.0018346533, "MEAN_MOTION_DOT": 0.00018316, "MEAN_MOTION_DDOT": 0}, "tle": {"line1": "1 34316U 93036NN  25336.46128048  .00018316  00000+0  18347-2 0  9993", "line2": "2 34316  74.0655 357.4723 0007831  87.8218 272.3861 14.91333968890564"}}, "geometry": {"type": "Point", "coordinates": [4.219006934737409, 29.515183955871283]}}, {"type": "Feature", "properties": {"norad_id": 34317, "name": "COSMOS 2251 DEB", "group": "cosmos-2251-debris", "lat": -73.77982913889005, "lon": -47.05340465504052, "alt_km": 1191.587693252498, "timestamp": "2025-12-03T17:47:51.112199+00:00", "meta": {"OBJECT_NAME": "COSMOS 2251 DEB", "OBJECT_ID": "1993-036NP", "EPOCH": "2025-12-03T11:17:00.960000", "MEAN_MOTION": 13.6510987, "ECCENTRICITY": 0.0336285, "INCLINATION": 73.925, "RA_OF_ASC_NODE": 51.0171, "ARG_OF_PERICENTER": 42.0922, "MEAN_ANOMALY": 335.2767, "EPHEMERIS_TYPE": 0, "CLASSIFICATION_TYPE": "U", "NORAD_CAT_ID": 34317, "ELEMENT_SET_NO": 999, "REV_AT_EPOCH": 83493, "BSTAR": 0.00051396, "MEAN_MOTION_DOT": 5.92e-06, "MEAN_MOTION_DDOT": 0}, "tle": {"line1": "1 34317U 93036NP  25337.47015000  .00000592  00000+0  51396-3 0  9998", "line2": "2 34317  73.9250  51.0171 0336285  42.0922 335.2767 13.65109870834937"}}, "geometry": {"type": "Point", "coordinates": [-47.05340465504052, -73.77982913889005]}}, {"type": "Feature", "properties": {"norad_id": 34321, "name": "COSMOS 2251 DEB", "group": "cosmos-2251-debris", "lat": 73.6070129409957, "lon": -109.93415988797152, "alt_km": 727.1412250850235, "timestamp": "2025-12-03T17:47:51.112210+00:00", "meta": {"OBJECT_NAME": "COSMOS 2251 DEB", "OBJECT_ID": "1993-036NT", "EPOCH": "2025-12-03T12:33:41.202720", "MEAN_MOTION": 14.49991225, "ECCENTRICITY": 0.0015628, "INCLINATION": 74.0277, "RA_OF_ASC_NODE": 173.6761, "ARG_OF_PERICENTER": 303.7365, "MEAN_ANOMALY": 84.0886, "EPHEMERIS_TYPE": 0, "CLASSIFICATION_TYPE": "U", "NORAD_CAT_ID": 34321, "ELEMENT_SET_NO": 999, "REV_AT_EPOCH": 88353, "BSTAR": 0.00075414, "MEAN_MOTION_DOT": 2.898e-05, "MEAN_MOTION_DDOT": 0}, "tle": {"line1": "1 34321U 93036NT  25337.52339355  .00002898  00000+0  75414-3 0  9999", "line2": "2 34321  74.0277 173.6761 0015628 303.7365  84.0886 14.49991225883539"}}, "geometry": {"type": "Point", "coordinates": [-109.93415988797152, 73.6070129409957]}}, {"type": "Feature", "properties": {"norad_id": 34323, "name": "COSMOS 2251 DEB", "group": "cosmos-2251-debris", "lat": 37.38044011119833, "lon": 153.46976494819015, "alt_km": 681.681526831584, "timestamp": "2025-12-03T17:47:51.112220+00:00", "meta": {"OBJECT_NAME": "COSMOS 2251 DEB", "OBJECT_ID": "1993-036NV", "EPOCH": "2025-12-03T11:14:41.398944", "MEAN_MOTION": 14.73899782, "ECCENTRICITY": 0.0061051, "INCLINATION": 73.952, "RA_OF_ASC_NODE": 141.3007, "ARG_OF_PERICENTER": 187.3936, "MEAN_ANOMALY": 204.1381, "EPHEMERIS_TYPE": 0, "CLASSIFICATION_TYPE": "U", "NORAD_CAT_ID": 34323, "ELEMENT_SET_NO": 999, "REV_AT_EPOCH": 88303, "BSTAR": 0.0035006, "MEAN_MOTION_DOT": 0.00023702, "MEAN_MOTION_DDOT": 0}, "tle": {"line1": "1 34323U 93036NV  25337.46853471  .00023702  00000+0  35006-2 0  9993", "line2": "2 34323  73.9520 141.3007 0061051 187.3936 204.1381 14.73899782883038"}}, "geometry": {"type": "Point", "coordinates": [153.46976494819015, 37.38044011119833]}}, {"type": "Feature", "properties": {"norad_id": 34325, "name": "COSMOS 2251 DEB", "group": "cosmos-2251-debris", "lat": -6.183153538686818, "lon": -153.13612316595487, "alt_km": 962.4386867207231, "timestamp": "2025-12-03T17:47:51.112231+00:00", "meta": {"OBJECT_NAME": "COSMOS 2251 DEB", "OBJECT_ID": "1993-036NX", "EPOCH": "2025-12-03T10:07:48.150048", "MEAN_MOTION": 14.04379455, "ECCENTRICITY": 0.0193245, "INCLINATION": 73.8714, "RA_OF_ASC_NODE": 209.2229, "ARG_OF_PERICENTER": 228.3971, "MEAN_ANOMALY": 308.8817, "EPHEMERIS_TYPE": 0, "CLASSIFICATION_TYPE": "U", "NORAD_CAT_ID": 34325, "ELEMENT_SET_NO": 999, "REV_AT_EPOCH": 85384, "BSTAR": 0.002246, "MEAN_MOTION_DOT": 4.199e-05, "MEAN_MOTION_DDOT": 0}, "tle": {"line1": "1 34325U 93036NX  25337.42208507  .00004199  00000+0  22460-2 0  9994", "line2": "2 34325  73.8714 209.2229 0193245 228.3971 308.8817 14.04379455853846"}}, "geometry": {"type": "Point", "coordinates": [-153.13612316595487, -6.183153538686818]}}]}